STARLINK-4572           
1 53692U 22105AW  26068.67304046  .00012459  00000+0  56421-3 0  9998
2 53692  97.6182 315.6347 0001842  18.3505 341.7796 15.21020685193556
FLOCK 4H-33             
1 66736U 25276BY  26068.75632564  .00008618  00000+0  40674-3 0  9996
2 66736  97.4288 144.1705 0000956 288.4074  71.7057 15.19689011 15333
